[{"OBJECT_NAME":"TIANMU-1 07","OBJECT_ID":"2023-101A","EPOCH":"2026-03-06T13:47:20.454720","MEAN_MOTION":15.29118809,"ECCENTRICITY":0.00046097,"INCLINATION":97.2728,"RA_OF_ASC_NODE":118.5929,"ARG_OF_PERICENTER":142.4105,"MEAN_ANOMALY":217.7458,"EPHEMERIS_TYPE":0,"CLASSIFICATION_TYPE":"U","NORAD_CAT_ID":57399,"ELEMENT_SET_NO":999,"REV_AT_EPOCH":14596,"BSTAR":0.00029794732,"MEAN_MOTION_DOT":8.352e-5,"MEAN_MOTION_DDOT":0},{"OBJECT_NAME":"STARLINK-31336","OBJECT_ID":"2024-027P","EPOCH":"2026-03-09T22:40:37.119648","MEAN_MOTION":15.30189602,"ECCENTRICITY":0.00011028,"INCLINATION":53.1596,"RA_OF_ASC_NODE":308.6965,"ARG_OF_PERICENTER":124.7203,"MEAN_ANOMALY":235.3902,"EPHEMERIS_TYPE":0,"CLASSIFICATION_TYPE":"U","NORAD_CAT_ID":58944,"ELEMENT_SET_NO":999,"REV_AT_EPOCH":11735,"BSTAR":8.6423365e-5,"MEAN_MOTION_DOT":2.201e-5,"MEAN_MOTION_DDOT":0}]
